{
    "links": {
        "self": "http://www.neowsapp.com/rest/v1/neo/3727043?api_key=iIulBulltgU6a56xZRHN4H3l9WmuAYTsLGpBGhQ2"
    },
    "id": "3727043",
    "neo_reference_id": "3727043",
    "name": "(2015 RS35)",
    "designation": "2015 RS35",
    "nasa_jpl_url": "http://ssd.jpl.nasa.gov/sbdb.cgi?sstr=3727043",
    "absolute_magnitude_h": 22.7,
    "estimated_diameter": {
        "kilometers": {
            "estimated_diameter_min": 0.0766575574,
            "estimated_diameter_max": 0.1714115092
        },
        "meters": {
            "estimated_diameter_min": 76.6575573531,
            "estimated_diameter_max": 171.4115092306
        },
        "miles": {
            "estimated_diameter_min": 0.0476327831,
            "estimated_diameter_max": 0.1065101409
        },
        "feet": {
            "estimated_diameter_min": 251.5011804664,
            "estimated_diameter_max": 562.3737359442
        }
    },
    "is_potentially_hazardous_asteroid": false,
    "close_approach_data": [
        {
            "close_approach_date": "2009-05-30",
            "close_approach_date_full": "2009-May-30 01:39",
            "epoch_date_close_approach": 1243647540000,
            "relative_velocity": {
                "kilometers_per_second": "6.6561111444",
                "kilometers_per_hour": "23962.0001197785",
                "miles_per_hour": "14889.0550188702"
            },
            "miss_distance": {
                "astronomical": "0.0828892738",
                "lunar": "32.2439275082",
                "kilometers": "12400058.806326806",
                "miles": "7705039.2548336828"
            },
            "orbiting_body": "Mars"
        },
        {
            "close_approach_date": "2015-08-30",
            "close_approach_date_full": "2015-Aug-30 11:38",
            "epoch_date_close_approach": 1440934680000,
            "relative_velocity": {
                "kilometers_per_second": "4.6599514603",
                "kilometers_per_hour": "16775.8252571806",
                "miles_per_hour": "10423.8454216076"
            },
            "miss_distance": {
                "astronomical": "0.266742368",
                "lunar": "103.762781152",
                "kilometers": "39904090.09155616",
                "miles": "24795251.811788608"
            },
            "orbiting_body": "Earth"
        }
    ],
    "orbital_data": {
        "orbit_id": "9",
        "orbit_determination_date": "2018-02-10 07:06:59",
        "first_observation_date": "2015-08-10",
        "last_observation_date": "2015-10-04",
        "data_arc_in_days": 55,
        "observations_used": 35,
        "orbit_uncertainty": "6",
        "minimum_orbit_intersection": ".262459",
        "jupiter_tisserand_invariant": "3.575",
        "epoch_osculation": "2459000.5",
        "eccentricity": ".411602185956884",
        "semi_major_axis": "2.155875119553873",
        "inclination": "8.173938379138544",
        "ascending_node_longitude": "169.3229820454941",
        "orbital_period": "1156.20229623718",
        "perihelion_distance": "1.26851220769544",
        "perihelion_argument": "162.7033173428301",
        "aphelion_distance": "3.043238031412306",
        "perihelion_time": "2459568.346783899737",
        "mean_anomaly": "183.1928418848511",
        "mean_motion": ".3113641974000634",
        "equinox": "J2000",
        "orbit_class": {
            "orbit_class_type": "AMO",
            "orbit_class_description": "Near-Earth asteroid orbits similar to that of 1221 Amor",
            "orbit_class_range": "1.017 AU < q (perihelion) < 1.3 AU"
        }
    },
    "is_sentry_object": false
}